{
  "type": "FeatureCollection",
  "features": [
    {
      "type": "Feature",
      "properties": {
        "norad_id": 37836,
        "name": "EUTELSAT 16A",
        "group": "eutelsat",
        "lat": -0.07363276266555173,
        "lon": -123.82018534956072,
        "alt_km": 35763.58763194331,
        "timestamp": "2025-12-07T09:35:09.463401+00:00",
        "meta_object_name": "EUTELSAT 16A",
        "meta_object_id": "2011-057A",
        "meta_epoch": "2025-12-06T21:42:38.817216",
        "meta_mean_motion": 1.00270003,
        "meta_eccentricity": 0.00059063,
        "meta_inclination": 0.058,
        "meta_ra_of_asc_node": 355.696,
        "meta_arg_of_pericenter": 263.9968,
        "meta_mean_anomaly": 157.9101,
        "meta_ephemeris_type": 0,
        "meta_classification_type": "U",
        "meta_norad_cat_id": 37836,
        "meta_element_set_no": 999,
        "meta_rev_at_epoch": 539,
        "meta_bstar": 0,
        "meta_mean_motion_dot": 1.09e-06,
        "meta_mean_motion_ddot": 0,
        "tle_line1": "1 37836U 11057A   25340.90461594  .00000109  00000+0  00000+0 0  9991",
        "tle_line2": "2 37836   0.0580 355.6960 0005906 263.9968 157.9101  1.00270003  5393"
      },
      "geometry": {
        "type": "Point",
        "coordinates": [
          -123.82018534956072,
          -0.07363276266555173
        ]
      }
    },
    {
      "type": "Feature",
      "properties": {
        "norad_id": 38992,
        "name": "EUTELSAT 21B",
        "group": "eutelsat",
        "lat": -0.08563619950911623,
        "lon": -118.21042273791092,
        "alt_km": 35773.96772727527,
        "timestamp": "2025-12-07T09:35:09.463413+00:00",
        "meta_object_name": "EUTELSAT 21B",
        "meta_object_id": "2012-062B",
        "meta_epoch": "2025-12-06T21:42:38.817216",
        "meta_mean_motion": 1.0026991,
        "meta_eccentricity": 0.00032144,
        "meta_inclination": 0.0664,
        "meta_ra_of_asc_node": 353.2944,
        "meta_arg_of_pericenter": 270.921,
        "meta_mean_anomaly": 158.9844,
        "meta_ephemeris_type": 0,
        "meta_classification_type": "U",
        "meta_norad_cat_id": 38992,
        "meta_element_set_no": 999,
        "meta_rev_at_epoch": 4790,
        "meta_bstar": 0,
        "meta_mean_motion_dot": 1.36e-06,
        "meta_mean_motion_ddot": 0,
        "tle_line1": "1 38992U 12062B   25340.90461594  .00000136  00000+0  00000+0 0  9992",
        "tle_line2": "2 38992   0.0664 353.2944 0003214 270.9210 158.9844  1.00269910 47907"
      },
      "geometry": {
        "type": "Point",
        "coordinates": [
          -118.21042273791092,
          -0.08563619950911623
        ]
      }
    },
    {
      "type": "Feature",
      "properties": {
        "norad_id": 39020,
        "name": "EUTELSAT 70B",
        "group": "eutelsat",
        "lat": -0.08126808793153438,
        "lon": -69.25074570241355,
        "alt_km": 35773.412939076195,
        "timestamp": "2025-12-07T09:35:09.463425+00:00",
        "meta_object_name": "EUTELSAT 70B",
        "meta_object_id": "2012-069A",
        "meta_epoch": "2025-12-06T20:20:38.721696",
        "meta_mean_motion": 1.00271934,
        "meta_eccentricity": 0.00043076,
        "meta_inclination": 0.0641,
        "meta_ra_of_asc_node": 9.6903,
        "meta_arg_of_pericenter": 234.7039,
        "meta_mean_anomaly": 207.1551,
        "meta_ephemeris_type": 0,
        "meta_classification_type": "U",
        "meta_norad_cat_id": 39020,
        "meta_element_set_no": 999,
        "meta_rev_at_epoch": 4758,
        "meta_bstar": 0,
        "meta_mean_motion_dot": -3.8e-07,
        "meta_mean_motion_ddot": 0,
        "tle_line1": "1 39020U 12069A   25340.84767039 -.00000038  00000+0  00000+0 0  9990",
        "tle_line2": "2 39020   0.0641   9.6903 0004307 234.7039 207.1551  1.00271934 47588"
      },
      "geometry": {
        "type": "Point",
        "coordinates": [
          -69.25074570241355,
          -0.08126808793153438
        ]
      }
    },
    {
      "type": "Feature",
      "properties": {
        "norad_id": 39122,
        "name": "EUTELSAT 117 WEST A",
        "group": "eutelsat",
        "lat": 0.028891479729682222,
        "lon": 103.39033932215692,
        "alt_km": 35798.44769384723,
        "timestamp": "2025-12-07T09:35:09.463437+00:00",
        "meta_object_name": "EUTELSAT 117 WEST A",
        "meta_object_id": "2013-012A",
        "meta_epoch": "2025-12-06T21:40:18.179616",
        "meta_mean_motion": 1.00269992,
        "meta_eccentricity": 0.00031484,
        "meta_inclination": 0.0147,
        "meta_ra_of_asc_node": 328.1698,
        "meta_arg_of_pericenter": 288.1954,
        "meta_mean_anomaly": 27.85,
        "meta_ephemeris_type": 0,
        "meta_classification_type": "U",
        "meta_norad_cat_id": 39122,
        "meta_element_set_no": 999,
        "meta_rev_at_epoch": 4650,
        "meta_bstar": 0,
        "meta_mean_motion_dot": -7e-08,
        "meta_mean_motion_ddot": 0,
        "tle_line1": "1 39122U 13012A   25340.90298819 -.00000007  00000+0  00000+0 0  9990",
        "tle_line2": "2 39122   0.0147 328.1698 0003148 288.1954  27.8500  1.00269992 46506"
      },
      "geometry": {
        "type": "Point",
        "coordinates": [
          103.39033932215692,
          0.028891479729682222
        ]
      }
    },
    {
      "type": "Feature",
      "properties": {
        "norad_id": 39163,
        "name": "EUTELSAT 7B",
        "group": "eutelsat",
        "lat": -0.06377114448772594,
        "lon": -132.8607221891327,
        "alt_km": 35784.74581530563,
        "timestamp": "2025-12-07T09:35:09.463450+00:00",
        "meta_object_name": "EUTELSAT 7B",
        "meta_object_id": "2013-022A",
        "meta_epoch": "2025-12-06T21:50:38.745024",
        "meta_mean_motion": 1.0027059,
        "meta_eccentricity": 0.00044774,
        "meta_inclination": 0.0691,
        "meta_ra_of_asc_node": 8.8561,
        "meta_arg_of_pericenter": 303.5544,
        "meta_mean_anomaly": 98.1797,
        "meta_ephemeris_type": 0,
        "meta_classification_type": "U",
        "meta_norad_cat_id": 39163,
        "meta_element_set_no": 999,
        "meta_rev_at_epoch": 4602,
        "meta_bstar": 0,
        "meta_mean_motion_dot": 5.3e-07,
        "meta_mean_motion_ddot": 0,
        "tle_line1": "1 39163U 13022A   25340.91017066  .00000053  00000+0  00000+0 0  9990",
        "tle_line2": "2 39163   0.0691   8.8561 0004477 303.5544  98.1797  1.00270590 46021"
      },
      "geometry": {
        "type": "Point",
        "coordinates": [
          -132.8607221891327,
          -0.06377114448772594
        ]
      }
    },
    {
      "type": "Feature",
      "properties": {
        "norad_id": 39612,
        "name": "EXPRESS-AT1",
        "group": "eutelsat",
        "lat": -0.025115247655456592,
        "lon": -83.78707590400917,
        "alt_km": 35786.1775658699,
        "timestamp": "2025-12-07T09:35:09.463462+00:00",
        "meta_object_name": "EXPRESS-AT1",
        "meta_object_id": "2014-010A",
        "meta_epoch": "2025-12-06T21:25:41.206656",
        "meta_mean_motion": 1.00271881,
        "meta_eccentricity": 5.368e-05,
        "meta_inclination": 0.0175,
        "meta_ra_of_asc_node": 305.5558,
        "meta_arg_of_pericenter": 236.3246,
        "meta_mean_anomaly": 271.4673,
        "meta_ephemeris_type": 0,
        "meta_classification_type": "U",
        "meta_norad_cat_id": 39612,
        "meta_element_set_no": 999,
        "meta_rev_at_epoch": 4289,
        "meta_bstar": 0,
        "meta_mean_motion_dot": 8.4e-07,
        "meta_mean_motion_ddot": 0,
        "tle_line1": "1 39612U 14010A   25340.89283804  .00000084  00000+0  00000+0 0  9993",
        "tle_line2": "2 39612   0.0175 305.5558 0000536 236.3246 271.4673  1.00271881 42898"
      },
      "geometry": {
        "type": "Point",
        "coordinates": [
          -83.78707590400917,
          -0.025115247655456592
        ]
      }
    },
    {
      "type": "Feature",
      "properties": {
        "norad_id": 39613,
        "name": "EXPRESS-AT2",
        "group": "eutelsat",
        "lat": 0.008983985096280268,
        "lon": 0.0713425348431636,
        "alt_km": 35785.15404143313,
        "timestamp": "2025-12-07T09:35:09.463475+00:00",
        "meta_object_name": "EXPRESS-AT2",
        "meta_object_id": "2014-010B",
        "meta_epoch": "2025-12-06T21:10:43.513248",
        "meta_mean_motion": 1.00269119,
        "meta_eccentricity": 0.00014263,
        "meta_inclination": 0.0183,
        "meta_ra_of_asc_node": 353.4523,
        "meta_arg_of_pericenter": 293.5515,
        "meta_mean_anomaly": 246.4476,
        "meta_ephemeris_type": 0,
        "meta_classification_type": "U",
        "meta_norad_cat_id": 39613,
        "meta_element_set_no": 999,
        "meta_rev_at_epoch": 4257,
        "meta_bstar": 0,
        "meta_mean_motion_dot": 0,
        "meta_mean_motion_ddot": 0,
        "tle_line1": "1 39613U 14010B   25340.88244807  .00000000  00000+0  00000+0 0  9991",
        "tle_line2": "2 39613   0.0183 353.4523 0001426 293.5515 246.4476  1.00269119 42574"
      },
      "geometry": {
        "type": "Point",
        "coordinates": [
          0.0713425348431636,
          0.008983985096280268
        ]
      }
    }
  ]
}